
  ======================================================================

  |                     Jet Propulsion Laboratory                      |

  |                                                                    |

  |                  * * *    W A R N I N G   * * *                    |

  |                                                                    |

  |                          Property of the                           |

  |                      UNITED STATES GOVERNMENT                      |

  |                                                                    |

  |    This computer is funded by the United States Government and     |

  | operated by the California Institute of Technology in support of   |

  | ongoing U.S. Government programs and activities.  If you are not   |

  | authorized to access this system, disconnect now.  Users of this   |

  | system have no expectation of privacy. By continuing, you consent  |

  |     to your keystrokes and data content being monitored.           |

  ======================================================================

 

[H[J                                                                               

     ___    _____     ___                                                      

    /_ /|  /____/ \  /_ /|       Horizons On-line Ephemeris System v4.08       

    | | | |  __ \ /| | | |       Solar System Dynamics Group                   

 ___| | | | |__) |/  | | |__     Jet Propulsion Laboratory                     

/___| | | |  ___/    | |/__ /|   Pasadena, CA, USA                             

|_____|/  |_|/       |_____|/                                                  

 

 Establishing connection, stand-by ...  

[H[J 

JPL Horizons, version 4.08 

Type `?' for brief intro, `?!' for more details 

System news updated September 14, 2017

 

Horizons> 199
[?1h=
*******************************************************************************
 Revised: Jul 31, 2013              Mercury                             199 / 1

 GEOPHYSICAL DATA (updated 2008-Feb-07):
  Mean radius (km)      =  2440(+-1)     Density (g cm^-3)     =  5.427
  Mass (10^23 kg )      =     3.302      Flattening, f         =  
  Volume (x10^10 km^3)  =     6.085      Semi-major axis       = 
  Sidereal rot. period  =    58.6462 d   Rot. Rate (x10^5 s)   =  0.124001
  Mean solar day        =   175.9421 d   Polar gravity ms^-2   =
  Mom. of Inertia       =     0.33       Equ. gravity  ms^-2   =  3.701     
  Core radius (km)      = ~1600          Potential Love # k2   =

  GM (km^3 s^-2)        = 22032.09       Equatorial Radius, Re =    2440 km
  GM 1-sigma (km^3 s^-2)=   +-0.91       Mass ratio (sun/plnt) = 6023600
 
  Atmos. pressure (bar) =                Max. angular diam.    = 11.0"   
  Mean Temperature (K)  =                Visual mag. V(1,0)    = -0.42 
  Geometric albedo      =   0.106        Obliquity to orbit[1] = 2.11' +/- 0.1'  
  Sidereal orb. per.    =   0.2408467 y  Mean Orbit vel.  km/s = 47.362 
  Sidereal orb. per.    =  87.969257  d  Escape vel. km/s      =  4.435
  Hill's sphere rad. Rp =  94.4          Planetary Solar Const = 9936.9 (Wm^2)

[1] Margot et al., Science 316, 2007
*******************************************************************************

[K[?1l> Select ... [E]phemeris, [F]tp, [M]ail, [R]edisplay, ?, <cr>: E
 

 Observe, Elements, Vectors  [o,e,v,?] : v
 Coordinate center [ <id>,coord,geo  ] : 
 Reference plane [eclip, frame, body ] : eclip
 Starting TDB [>= 9999BC-Mar-20 00:00] : 
Using START_TIME based on current system time

 Ending   TDB [<=   9999-Dec-31 12:00] : 
Using STOP_TIME based on current system date +14 days

 Output interval [ex: 10m, 1h, 1d, ? ] : 
 

 Current output table defaults --

   Ref. Frame     = ICRF/J2000.0

   Corrections    = NONE

   Units          = AU-D

   CSV format     = NO

   Output delta-T = NO

   Table type     = 3 (position, velocity, LT, range, range-rate)

   Vector label   = YES

 

 Accept default output [ cr=(y), n, ?] : 
 Working ...   - \ | / - \ | / - \ | / - \ | / - \ | / - \ | / - \ | / - \ | / - \ | / - \ | / - \ | / - \ | / - \ | / - \ | / - \ | / - \ | / - \ | /  

[?1h=
*******************************************************************************
Ephemeris / PORT_LOGIN Wed Sep 20 11:45:05 2017 Pasadena, USA    / Horizons    
*******************************************************************************
Target body name: Mercury (199)                   {source: DE431mx}
Center body name: Earth (399)                     {source: DE431mx}
Center-site name: BODY CENTER
*******************************************************************************
Start time      : A.D. 2017-Sep-20 00:00:00.0000 TDB
Stop  time      : A.D. 2017-Oct-04 00:00:00.0000 TDB
Step-size       : 60 minutes
*******************************************************************************
Center geodetic : 0.00000000,0.00000000,0.0000000 {E-lon(deg),Lat(deg),Alt(km)}
Center cylindric: 0.00000000,0.00000000,0.0000000 {E-lon(deg),Dxy(km),Dz(km)}
Center radii    : 6378.1 x 6378.1 x 6356.8 km     {Equator, meridian, pole}    
Output units    : AU-D                                                         
Output type     : GEOMETRIC cartesian states
Output format   : 3 (position, velocity, LT, range, range-rate)
Reference frame : ICRF/J2000.0                                                 
Coordinate systm: Ecliptic and Mean Equinox of Reference Epoch                 
*******************************************************************************
JDTDB
   X     Y     Z
   VX    VY    VZ
   LT    RG    RR
*******************************************************************************
$$SOE
2458030.500000000 = A.D. 2017-Oct-04 00:00:00.0000 TDB 
 X =-1.364078807352118E+00 Y =-1.661152931067715E-01 Z = 3.661454448015899E-02
 VX=-3.840682365304782E-03 VY=-4.371989422492938E-02 VZ=-1.525176615861394E-03
 LT= 7.939281161985256E-03 RG= 1.374643920489453E+00 RR= 9.053757581513546E-03
